[{"OBJECT_NAME":"VSP ROSE","OBJECT_ID":"2024-043AC","EPOCH":"2026-03-09T21:48:06.922944","MEAN_MOTION":15.27746075,"ECCENTRICITY":0.00099339,"INCLINATION":97.5443,"RA_OF_ASC_NODE":203.927,"ARG_OF_PERICENTER":232.2702,"MEAN_ANOMALY":127.7637,"EPHEMERIS_TYPE":0,"CLASSIFICATION_TYPE":"U","NORAD_CAT_ID":59124,"ELEMENT_SET_NO":999,"REV_AT_EPOCH":11182,"BSTAR":0.00025731354,"MEAN_MOTION_DOT":6.907e-5,"MEAN_MOTION_DDOT":0},{"OBJECT_NAME":"STARLINK-33990","OBJECT_ID":"2025-093E","EPOCH":"2026-03-09T01:00:41.148288","MEAN_MOTION":15.27598871,"ECCENTRICITY":0.00025072,"INCLINATION":43.0025,"RA_OF_ASC_NODE":81.503,"ARG_OF_PERICENTER":278.0352,"MEAN_ANOMALY":82.0216,"EPHEMERIS_TYPE":0,"CLASSIFICATION_TYPE":"U","NORAD_CAT_ID":63840,"ELEMENT_SET_NO":999,"REV_AT_EPOCH":4765,"BSTAR":0.0015919678,"MEAN_MOTION_DOT":0.00043833,"MEAN_MOTION_DDOT":0}]
